[{"OBJECT_NAME":"STARLINK-31160","OBJECT_ID":"2024-005X","EPOCH":"2026-03-09T22:00:01.999584","MEAN_MOTION":15.26722141,"ECCENTRICITY":0.00013219,"INCLINATION":43.0011,"RA_OF_ASC_NODE":218.3571,"ARG_OF_PERICENTER":279.8839,"MEAN_ANOMALY":271.7411,"EPHEMERIS_TYPE":0,"CLASSIFICATION_TYPE":"U","NORAD_CAT_ID":58749,"ELEMENT_SET_NO":999,"REV_AT_EPOCH":558,"BSTAR":0.0018804434,"MEAN_MOTION_DOT":0.00050499,"MEAN_MOTION_DDOT":0},{"OBJECT_NAME":"ELECTRON KICK STAGE R\/B","OBJECT_ID":"2022-147B","EPOCH":"2026-03-09T22:28:20.187264","MEAN_MOTION":15.28920172,"ECCENTRICITY":0.00095089,"INCLINATION":97.642,"RA_OF_ASC_NODE":85.1135,"ARG_OF_PERICENTER":110.4683,"MEAN_ANOMALY":249.7578,"EPHEMERIS_TYPE":0,"CLASSIFICATION_TYPE":"U","NORAD_CAT_ID":54228,"ELEMENT_SET_NO":999,"REV_AT_EPOCH":18390,"BSTAR":0.00083201931,"MEAN_MOTION_DOT":0.00023374,"MEAN_MOTION_DDOT":0}]
